[{"OBJECT_NAME":"STARLINK-31582","OBJECT_ID":"2024-074M","EPOCH":"2026-03-08T19:03:00.463968","MEAN_MOTION":15.27571925,"ECCENTRICITY":6.456e-5,"INCLINATION":42.9994,"RA_OF_ASC_NODE":348.9022,"ARG_OF_PERICENTER":357.187,"MEAN_ANOMALY":2.8978,"EPHEMERIS_TYPE":0,"CLASSIFICATION_TYPE":"U","NORAD_CAT_ID":59545,"ELEMENT_SET_NO":999,"REV_AT_EPOCH":10587,"BSTAR":-4.4703632e-5,"MEAN_MOTION_DOT":-1.491e-5,"MEAN_MOTION_DDOT":0},{"OBJECT_NAME":"KSLV-II R\/B","OBJECT_ID":"2023-072H","EPOCH":"2026-03-09T20:13:26.441760","MEAN_MOTION":15.33109439,"ECCENTRICITY":0.00241884,"INCLINATION":97.4991,"RA_OF_ASC_NODE":274.152,"ARG_OF_PERICENTER":318.2938,"MEAN_ANOMALY":41.646,"EPHEMERIS_TYPE":0,"CLASSIFICATION_TYPE":"U","NORAD_CAT_ID":56750,"ELEMENT_SET_NO":999,"REV_AT_EPOCH":15516,"BSTAR":0.00028309532,"MEAN_MOTION_DOT":9.057e-5,"MEAN_MOTION_DDOT":0}]
